IRIDIUM 57              
1 25273U 98019B   24204.63249578  .00000891  00000+0  30438-3 0  9990
2 25273  86.3953 283.2747 0002239  93.7215 266.4237 14.35294422377509
IRIDIUM 63              
1 25286U 98021B   24204.57289392  .00000873  00000+0  29492-3 0  9996
2 25286  86.3979 220.2010 0002094  92.0084 268.1353 14.35841849376531
IRIDIUM 69              
1 25319U 98026A   24204.60668791  .00001085  00000+0  33790-3 0  9998
2 25319  86.3960 234.4644 0003968  60.7454 299.4142 14.40094050375613
IRIDIUM 82              
1 25467U 98051A   24204.70724470  .00025745  00000+0  12398-2 0  9997
2 25467  86.3749 268.9036 0126288  90.3526 271.2184 15.11743239373856
